OrganizationName,EducationBoard,ContactNo,Email,Website,StreetAddress,District,Zone,ContactAddress,HighSchoolCourses,Link,Funding,FacebookLink,GooglePlusLink,TwitterLink,YoutubeLink,OtherLinks
Kathmandu Model Higher Secondary School,HSEB,"977-1-4242121,4242015",info@ktmmodelcollege.edu.np,http://www.ktmmodelcollege.edu.np/,Bagbazar       ,Kathmandu,Bagmati,Bagbazar  Kathmandu   Bagmati,"Ten Plus Two Science ; 850; ; 92000;,Ten Plus Two Management ; 350; ; 66400;",http://edusanjal.com/college/kathmandu-model-higher-secondary-school,Private,,,,,
Einstein Academy Higher Secondary School and College,HSEB,"01-5170418,5171139",krrai2015@gmail.com,http://www.einsteinacademy.edu.np/,Mahalaxmi Chowk       ,Lalitpur,Bagmati," Einstein Academy HSS and College Mahalaxmisthan Chowk,Ring Road, Lalitpur-14 G.P.O. box:8975, EPC 719","Ten Plus Two Science,Ten Plus Two Management,Ten Plus Two Humanities",http://edusanjal.com/college/einstein-academy-higher-secondary-school-and-college,Private,https://www.facebook.com/einstein.academy,,,,
Princeton Higher Secondary School,HSEB,"977-1-4107564, 4107604",info@princeton.edu.np,http://www.princeton.edu.np/,Shantinagar       ,Kathmandu,Bagmati," Princeton Higher Secondary School Shantinagar, New Baneshwar, Kathmandu-34","Ten Plus Two Humanities,Ten Plus Two Management,Ten Plus Two Science",http://edusanjal.com/college/princeton-higher-secondary-school,Private,,,,,
Uniglobe Higher Secondary School,HSEB,977-1-4220722|4251409|4221875,info@uniglobecollege.edu.np,http://uniglobecollege.edu.np/,"Kamaladi, Ganeshthan       ",Kathmandu,Bagmati,"Kamaladi, Ganeshthan  Kathmandu   Bagmati","Ten Plus Two Science,Ten Plus Two Management",http://edusanjal.com/college/uniglobe-higher-secondary-school,Private,http://www.facebook.com/UniglobeHSSCollege,,https://twitter.com/UniglobeHSS/,https://www.youtube.com/c/uniglobehsscollege,
GoldenGate International College,HSEB,"977-1-4477082, 4495165",info@goldengate.edu.np,,"Old Baneshwor, Battisputali       ",Kathmandu,Bagmati," Golden Gate International College Wisdom Tower, Trikuti Colony, Battisputali Old Baneshwor, Kathmandu","Ten Plus Two Humanities ; 40;,Ten Plus Two Science ; 800;,Ten Plus Two Management ; 500;",http://edusanjal.com/college/golden-gate-international-college,Private,,,,,
College of Applied Business (CAB),HSEB,"977-1-4462736, 9860041587",info@cab.edu.np,http://www.cab.edu.np/,"Gangahity, Dhobikhola       ",Kathmandu,Bagmati,"College of Applied Business Gangahity, Dhobikhola",Ten Plus Two Management,http://edusanjal.com/college/college-applied-business,Private,https://www.facebook.com/collegeofappliedbusiness/,,,,
KMC National Higher Secondary School,HSEB,"977-01-5201331,5201334",,http://www.nationalcampus.edu.np/,Balkumari       ,Lalitpur,Bagmati,Balkumari  Lalitpur   Bagmati,"Ten Plus Two Science,Ten Plus Two Management,Ten Plus Two Humanities",http://edusanjal.com/college/national-higher-secondary-school,Private,,,,,
Global College of Management,HSEB,"977-1-4488312, 4475254",info@proed.edu.np,http://globalcollege.edu.np/gcm/,Mid-Baneshwor       ,Kathmandu,Bagmati," Global College of Management (Under Pro-Ed. Limited) Mid- Baneshwor, Kathmandu PO Box:24855",Ten Plus Two Management ; 600;,http://edusanjal.com/college/global-college-management,Private,,,,,
Plan Academy Higher Secondary School,HSEB,"977-1-5528419, 5537695,",,,"Kumaripati,         ",Lalitpur,Bagmati,"Proposed Name: Plan Academy Higher Secondary School Kumaripati, Lalitpur","Ten Plus Two Humanities,Ten Plus Two Management",http://edusanjal.com/college/plan-academy-higher-secondary-school,Private,,,,,
The Chandbagh Higher Secondary School,HSEB,"01-4371229, 4371229",principal@chandbagh.edu.np,http://chandbagh.edu.np/,Bansbari       ,Kathmandu,Bagmati,Bansbari  Kathmandu   Bagmati,Ten Plus Two Management,http://edusanjal.com/college/chandbagh-higher-secondary-school,Private,,,,,
"Everest College, Thapathali",HSEB,"977-1-4231460, 4266652, 4229653",info@everestcollege.edu.np,http://everestcollege.edu.np/,Thapathali       ,Kathmandu,Bagmati,Thapathali  Kathmandu   Bagmati,Ten Plus Two Management,http://edusanjal.com/college/everest-college-thapathali,Private,,,,,
Columbus Higher Secondary School,HSEB,"977-1-4781747, 4784883",college@columbus.edu.np,http://www.columbus.edu.np/,New Baneshwor       ,Kathmandu,Bagmati," Columbus Higher Secondary School and College P.O Box: 23728, Shankhamul Marg New Baneshwor, Kathmandu, Nepal","Ten Plus Two Management,Ten Plus Two Science",http://edusanjal.com/college/columbus-higher-secondary-school,Private,,,,,
Premier Higher Secondary School,HSEB,"977-1-4107138, 410 7198",info@premiercollege.edu.np,http://www.premiercollege.edu.np/,New Baneshwor       ,Kathmandu,Bagmati,New Baneshwor  Kathmandu   Bagmati,"Ten Plus Two Humanities ; 20;,Ten Plus Two Management ; 240;,Ten Plus Two Science ; 160;",http://edusanjal.com/college/premier-higher-secondary-school,Private,,,,,
K and K International College,HSEB,"977-1-4474557, 4497515",info@kandk.edu.np,http://www.kandk.edu.np/,"New Baneshwor (Infront of BICC, West Gate-2)       ",Kathmandu,Bagmati,"New Baneshwor (Infront of BICC, West Gate-2)  Kathmandu   Bagmati","Ten Plus Two Management,Ten Plus Two Humanities",http://edusanjal.com/college/k-and-k-international-college,Private,,,,,
Sahid Ramnath Dahal Smriti Higher Secondary School,HSEB,"977-014360969, 4361486",,,"Balaju Chowk, Opposite to Balaju Bhatbhateni Supermarket        ",Kathmandu,Bagmati,"Balaju Chowk, Opposite to Balaju Bhatbhateni Supermarket   Kathmandu   Bagmati","Ten Plus Two Management,Ten Plus Two Humanities,Ten Plus Two Education",http://edusanjal.com/college/sahid-ramnath-dahal-smriti-higher-secondary-school,Private,,,,,
â€‹Campion Academy,HSEB,"977-1-5535131, 5537959",principal.ca@cgeducation.com.np,http://cgeducation.com.np/campion_academy.php,Lagankhel (Next to Patan Hospital)       ,Lalitpur,Bagmati,Lagankhel (Next to Patan Hospital)  Lalitpur   Bagmati,"Ten Plus Two Science,Ten Plus Two Management,Ten Plus Two Humanities",http://edusanjal.com/college/campion-academy,Private,,,,,
Bagmati College,HSEB,"977-1-4374881, 4374887, 4372218",info@bmcollege.edu.np,http://www.bmcollege.edu.np/,Sukedhara       ,Kathmandu,Bagmati," Bagmati Modern College Sukedhara, New Colony Kathmandu, Nepal","Ten Plus Two Management,Ten Plus Two Science,Ten Plus Two Humanities",http://edusanjal.com/college/bagmati-college,Private,,,,,
Canvas international college,HSEB,"977-1-4380304, 4354280",info@canvascollege.edu.np,http://www.canvascollege.edu.np/,Basundhara       ,Kathmandu,Bagmati," Canvas International College Basundhara, Maharajgunj Kathmandu","Ten Plus Two Science,Ten Plus Two Management,Ten Plus Two Humanities",http://edusanjal.com/college/canvas-international-college,Private,,,,,
Universal College,HSEB,"4442775, 4428321",univcollege@wlink.com.np,http://uc.edu.np/,Maitidevi       ,Kathmandu,Bagmati," Universal College Maitidevi plaza, Maitidevi Chowk-33, Kathmandu, Nepal","Ten Plus Two Humanities,Ten Plus Two Management,Ten Plus Two Science",http://edusanjal.com/college/universal-college,Private,,,,,
Nepal Tourism and Hotel Management College,HSEB,977-61-432333/ 431678,nthmc@fewanet.com.np,http://www.nthmcpkr.com/,"Chinedada, Pokhara       ",Kaski,Gandaki," Nepal Tourism and Hotel Management College Chinedada, Pokhara-18 Nepal",Ten Plus Two Management,http://edusanjal.com/college/nepal-tourism-and-hotel-management-college,Private,,,,,
Acme Engineering College,HSEB,"977-1-4282962, 4280445, 4670924, 4670925",acme@acme.edu.np,,"Sitapaila Chowk,         ",Kathmandu,Bagmati," Acme Engineering College Sitapaila Chowk, Ring Road, Kathmandu, Nepal P.O. Box:8849",Ten Plus Two Science,http://edusanjal.com/college/acme-engineering-college,Private,,,,,
Caspian Valley college,HSEB,"977-1-5524065, 5554208",info@caspian.edu.np,http://www.caspian.edu.np/,Kumaripati       ,Lalitpur,Bagmati," Caspian Valley College PO Box: 8975, EPC 2685 Kumaripati, Lalitpur","Ten Plus Two Humanities,Ten Plus Two Management,Ten Plus Two Science",http://edusanjal.com/college/caspian-valley-college,Private,,,,,
Capital college and Research Center,HSEB,"977-1-5100423, 5100456",ccrc@wlink.com.np,http://www.ccrc.edu.np/,Balkumari Bridge       ,Kathmandu,Bagmati," Capital College and Research Centre GPO Box: 9737, Koteshwor (Near Balkumari Bridge), Kathmandu","Ten Plus Two Science,Ten Plus Two Management,Ten Plus Two Humanities",http://edusanjal.com/college/capital-college-and-research-center,Private,,,,,
Brihaspati College,HSEB,"977-71-522944, 523744",info@brihaspaticollege.edu.np,http://www.brihaspaticollege.edu.np/,"Goligadh-9, Bhairahawa       ",Rupandehi,Lumbini," Brihaspati College Goligadh-9, Bhairahwa","Ten Plus Two Management,Ten Plus Two Science",http://edusanjal.com/college/brihaspati-college,Private,,,,,
Hari Khetan Multiple Campus,HSEB,+977-51-524215,info@hkmc.edu.np,http://www.hkmc.edu.np/,Birgunj       ,Parsa,Narayani," Hari Khetan Multiple Campus Birgunj,Parsa","Ten Plus Two Humanities,Ten Plus Two Education,Ten Plus Two Management,Ten Plus Two Science",http://edusanjal.com/college/hari-khetan-multiple-campus,Private,,,,,
Tilottama Campus,HSEB,977-1-71542659,info@tilottama.edu.np,http://www.tilottama.edu.np/,"Yogikuti, Butwal       ",Rupandehi,Lumbini," Tilottama Campus Yogikuti Butwal, Rupandehi","Ten Plus Two Management,Ten Plus Two Science",http://edusanjal.com/college/tilottama-campus,Private,,,,,
National Academy of Science and Technology,HSEB,977-91-523949,nast@yahoo.com,http://www.nast.edu.np/,Dhangadi       ,Kailali,Seti, National Academy of Science and Technology Dhangadhi,"Ten Plus Two Science,Ten Plus Two Management",http://edusanjal.com/college/national-academy-science-and-technology,Private,,,,,
Xavier International College,HSEB,"977-1-443947, 4439472, 4439491",info@xavier.edu.np,http://www.xavier.edu.np/,Kalopul       ,Kathmandu,Bagmati," Xavier International College GPO. Box:23603 Kalopul, Kathmandu","Ten Plus Two Science ; 500;,Ten Plus Two Humanities ; 80;,Ten Plus Two Management ; 500;",http://edusanjal.com/college/xavier-international-college,Private,,,,,
St. Xaviers College,HSEB,"977-01-4221365, 4244636",ktm@sxc.edu.np,http://www.sxc.edu.np/,Maitighar       ,Kathmandu,Bagmati," St. Xavier's College Maitighar, Kathmandu",Ten Plus Two Science,http://edusanjal.com/college/st-xaviers-college,Private,,,,,
Trinity International College,HSEB,977-1-4445955 / 4445956,info@trinitycollege.edu.np,http://www.trinitycollege.edu.np/,Dillibazar Height       ,Kathmandu,Bagmati," Trinity International College Dillibazar Height, PO Box: 26111 Kathmandu, Nepal","Ten Plus Two Humanities,Ten Plus Two Management,Ten Plus Two Science",http://edusanjal.com/college/trinity-international-college,Private,,,,,
Triton International College,HSEB,977-015104450 977-015104529,tritonintlcollege@gmail.com,,Tinkune       ,Kathmandu,Bagmati," Triton International H S School and College Subidhanagar, Tinkune, Kathmandu, Nepal","Ten Plus Two Science,Ten Plus Two Management,Ten Plus Two Humanities",http://edusanjal.com/college/triton-international-college,Private,,,,,
White Field College,HSEB,"977-1-4251733, 4249538",info@ref.edu.np,http://www.ref.edu.np/,Shorakhutte       ,Kathmandu,Bagmati, White field College Shorakhutte- Shova bhagwati Road,"Ten Plus Two Humanities,Ten Plus Two Management,Ten Plus Two Science",http://edusanjal.com/college/white-field-college,Private,,,,,
Reliance International Academy (RIA),HSEB,"977-1-4822336,4812445",ria@mail.com.np,http://www.rianepal.edu.np/,"Saraswotinagar,chabahil        ",Kathmandu,Bagmati," Reliance International Academy Maitreya Marga, Saraswotinagar Chabhil, Kathmandu, Nepal","Ten Plus Two Humanities ; 40;,Ten Plus Two Management ; 440;,Ten Plus Two Science ; 200;",http://edusanjal.com/college/reliance-international-academy,Private,,,,,
New Millenium College,HSEB,"977-1-4427987, 4418585",nmahss@wlink.com.np,http://www.nema.edu.np/,Dhumbarahi       ,Kathmandu,Bagmati," New Millennium College Dhumbarahi, Ringroad, P.O. Box No. 2319, Kathmandu , Nepal","Ten Plus Two Humanities,Ten Plus Two Management,Ten Plus Two Science",http://edusanjal.com/college/new-millenium-college,Private,,,,,
Prime College,HSEB,"977-1-4360180, 4360182",info@prime.edu.np,http://www.prime.edu.np/,Khusibu       ,Kathmandu,Bagmati," Prime College G.P.O. Box: 9809, Naya Bazar, Khusibu, Kathmandu","Ten Plus Two Management,Ten Plus Two Science",http://edusanjal.com/college/prime-college,Private,,,,,
St. Lawrence College,HSEB,"977-1- 4487864, 4460996",info@stlawrence.edu.np,http://www.en.stlawrence.edu.np/,Chabhil       ,Kathmandu,Bagmati," St. Lawrence College PO Box: 1221, Chabahil, Pipalbot Kathmandu, Nepal","Ten Plus Two Humanities ; 25;,Ten Plus Two Management ; 300;,Ten Plus Two Science ; 250;",http://edusanjal.com/college/st-lawrence-college,Private,,,,,
Nepal Institute of Management and Science College,HSEB,"977-1-5535872, 5540931",info@nims.edu.np,http://www.nims.edu.np/,Lagankhel       ,Lalitpur,Bagmati," Nepal Institute of Management and Science Lagankhel, Lalitpur, Nepal","Ten Plus Two Humanities,Ten Plus Two Education,Ten Plus Two Management,Ten Plus Two Science",http://edusanjal.com/college/nepal-institute-management-and-science-college,Private,,,,,
National Integrated College,HSEB,"977-1-4442098, 4442722",niccollege@wlink.com.np,http://www.nic.edu.np/,Dillibazar       ,Kathmandu,Bagmati," National Integrated College (NIC) Gurju Marga, Charkhal, Dilli Bazar, Kathmandu, Nepal","Ten Plus Two Management,Ten Plus Two Science,Ten Plus Two Humanities",http://edusanjal.com/college/national-integrated-college,Private,,,,,
Nightangale College,HSEB,"977-1-5541420, 5551829",info@nightingalefoundation.com,http://www.nightingale.edu.np/,Kupandole       ,Lalitpur,Bagmati," Nightangale College Kupandole, Lalitpur, Nepal","Ten Plus Two Management,Ten Plus Two Science",http://edusanjal.com/college/nightangale-college,Private,,,,,
DAV College,HSEB,977-1-5536626,info@davcollegenepal.com,http://www.davcollege.edu.np/,Jwalakhel       ,Lalitpur,Bagmati,Jwalakhel  Lalitpur   Bagmati,"Ten Plus Two Management,Ten Plus Two Science",http://edusanjal.com/college/dav-college,Private,,,,,
Moonlight Higher Secondary School (MOLIHSS),HSEB,"977-1-5524311,5527525,5545654",info@molihss.edu.np,http://molihss.edu.np/,Lagankhel       ,Lalitpur,Bagmati," Moonlight Higher Secondary School Prayagpokhari, Lagankhel, Lalitpur PO Box: 8975, EPC: 2982","Ten Plus Two Humanities ; 30;,Ten Plus Two Management ; 300;,Ten Plus Two Science ; 300;",http://edusanjal.com/college/moon-light-higher-secondary-school,Private,,,,,
SV Academy College,HSEB,"977-1-4783913, 4784444",svacademy2002@gmail.com,http://www.svacademy.edu.np/,Buddhanagar       ,Kathmandu,Bagmati," SV Academy College Buddhanagar, PO Box: 535 Kathmandu, Nepal","Ten Plus Two Humanities,Ten Plus Two Education,Ten Plus Two Management",http://edusanjal.com/college/sv-academy-college,Private,,,,,
Metro Higher Secondary School,HSEB,"977-1-4474114,4472385",info@metro.edu.np,http://www.metro.edu.np/,Thapagaun       ,Kathmandu,Bagmati," Metro Higher Secondary School Thapagaun, New Baneshwor Kathmandu, Bagmati, Nepal","Ten Plus Two Humanities,Ten Plus Two Education,Ten Plus Two Management",http://edusanjal.com/college/metro-higher-secondary-school,Private,,,,,
College of Business Management,HSEB,"977-1-4418869, 4439716",info@cbm.edu.np,http://www.cbm.edu.np/,"Dillibazar,         ",Kathmandu,Bagmati," College of Business Management Gurju Marg, Dillibazar Height GPO Box: 3261, Kathmandu, Nepal",Ten Plus Two Management,http://edusanjal.com/college/college-of-business-management,Private,,,,,
The Times International College,HSEB,"977-1-4418046, 4420928, 4442717",info@timesinternational.com.np,http://timescollege.edu.np/,Dillibazar       ,Kathmandu,Bagmati," The Times International College Dillibazar, Kathmandu","Ten Plus Two Humanities,Ten Plus Two Management,Ten Plus Two Science",http://edusanjal.com/college/times-international-college,Private,,,,,
Caribbean College,HSEB,"977-1-5550676, 5537314",info@caribbean.edu.np,http://www.caribbean.edu.np/,Jawalakhel       ,Lalitpur,Bagmati," Caribbean Higher Secondary School and Caribbean College of Management GPO Box 8975 EPC 2974 Jawalakhel, Lalitpur, Nepal","Ten Plus Two Humanities,Ten Plus Two Management,Ten Plus Two Science",http://edusanjal.com/college/caribbean-college,Private,,,,,
Omega International College,HSEB,"977-1-5550563,5523191",info@omegacollege.edu.np,http://www.omegacollege.edu.np/,Kumaripati       ,Lalitpur,Bagmati," Omega International College P.B. No. 286, Kumaripati, Lalitpur Nepal","Ten Plus Two Science,Ten Plus Two Management,Ten Plus Two Humanities",http://edusanjal.com/college/omega-international-college,Private,,,,,
NASA International College,HSEB,"977-1-4460397,4479849",info@nasacollege.com,http://www.nasacollege.com/,Tinkune       ,Kathmandu,Bagmati," NASA International College Gairigaun,Tinkune, Kathmandu","Ten Plus Two Science,Ten Plus Two Management,Ten Plus Two Humanities",http://edusanjal.com/college/nasa-international-college,Private,,,,,
Bridgewater International College,HSEB,"977-1-4480069,4481590",info@bridgewaternepal.com,http://bridgewaternepal.com/,Sinamangal       ,Kathmandu,Bagmati," Bridgewater Education Foundation and Research Center PO Box: 1233 Sinamangal, Kathmandu, Nepal","Ten Plus Two Humanities,Ten Plus Two Management,Ten Plus Two Science",http://edusanjal.com/college/bridgewater-international-college,Private,,,,,
Rehdon Higher Secondary School and College,HSEB,"977-1-4352761, 4364106",rehdon@info.com.np,http://www.rehdoncollege.edu.np/,Samakhusi       ,Kathmandu,Bagmati," Rehdon International College Samakhusi, Kathmandu, Nepal Post Box: 9960","Ten Plus Two Management,Ten Plus Two Science,Ten Plus Two Humanities",http://edusanjal.com/college/rehdon-higher-secondary-school-and-college,Private,,,,,
Pentagon International College,HSEB,"977-1-4112324,4112325,4462745",info@pentagonintl.com,http://www.pentagon.edu.np/,Tinkune       ,Kathmandu,Bagmati," Pentagon International College Tinkune, Kathmandu, Nepal","Ten Plus Two Management,Ten Plus Two Science",http://edusanjal.com/college/pentagon-international-college,Private,,,,,
Diamond College,HSEB,977-1-4371603,info@diamondcollege.edu.np,http://www.diamondcollege.edu.np/,Narayan Gopal Chowk       ,Kathmandu,Bagmati," Diamond College Narayan Gopal Chowk, Chakrapath, Kapan Marga","Ten Plus Two Humanities,Ten Plus Two Management,Ten Plus Two Science",http://edusanjal.com/college/diamond-college,Private,,,,,
Kathmandu United (KU) City College,HSEB,"977-1-4823366, 4823066",kucedu@gmail.com,,"Saraswotinagar, Chabhil       ",Kathmandu,Bagmati,"Saraswotinagar, Chabhil  Kathmandu   Bagmati","Ten Plus Two Science,Ten Plus Two Management,Ten Plus Two Humanities",http://edusanjal.com/college/kathmandu-united-ku-city-college,Private,,,,,
Lumbini Academy Higher Secondary School and College,HSEB,977-1-4473243,info@laf.edu.np,http://www.laf.edu.np/,"Chabhil, Chuchepati       ",Kathmandu,Bagmati," Lumbini Academic College/ Academy HS School Chabhil, Chuchepati, Kathmandu Nepal","Ten Plus Two Science,Ten Plus Two Management,Ten Plus Two Humanities",http://edusanjal.com/college/lumbini-academy-higher-secondary-school-and-college,Private,,,,,
Sagarmatha Multiple College,HSEB,"977-1-4433334, 4433810, 4429423",smcoll@wlink.com.np,http://www.smcollege.edu.np/smc/,Dillibazar       ,Kathmandu,Bagmati," Sagarmatha Multiple College GPO Box: 19363 Dillibazar, Kathmandu","Ten Plus Two Humanities ; 30;,Ten Plus Two Management ; 200;,Ten Plus Two Science ; 140;",http://edusanjal.com/college/sagarmatha-multiple-college,Private,,,,,
Morgan International College,HSEB,"977-1-4354088, 4356876, 4389516, 4389517,4389518, 4389519.",info@morgancollege.edu.np,http://www.morgancollege.edu.np/,Basundhara       ,Kathmandu,Bagmati," Morgan International College Basundhara-3, Kathmandu.","Ten Plus Two Science,Ten Plus Two Management,Ten Plus Two Humanities",http://edusanjal.com/college/morgan-international-college,Private,,,,,
Xavier Academy,HSEB,"977-1-4430025, 4424289",info@xa.edu.np,http://www.xa.edu.np/,Lazimpat       ,Kathmandu,Bagmati," Xavier Academy Lazimpat, Kathmandu, Nepal","Ten Plus Two Management ; 140;,Ten Plus Two Science ; 120;",http://edusanjal.com/college/xavier-academy,Private,,,,,
Ashirwad College,HSEB,"977-1-4356231, 4352589",,,Samakhusi       ,Kathmandu,Bagmati," Ashirwad College Samakhusi, Kathmandu",Ten Plus Two Management,http://edusanjal.com/college/ashirwad-college,Private,,,,,
Advanced Academy,HSEB,"977-1-5528307, 5521235",info@advancedacademy.edu.np,http://www.advancedacademy.edu.np/,Kupandole       ,Lalitpur,Bagmati," Advanced Academy Kupandole, kandebatasthan, Lalitpur","Ten Plus Two Humanities,Ten Plus Two Management,Ten Plus Two Science",http://edusanjal.com/college/advanced-academy,Private,,,,,
Active Academy College,HSEB,977-1-4356400,activeacademy@gmail.com,http://activeacademycollege.edu.np/,Basundhara       ,Kathmandu,Bagmati," Active Academy College Basundhara, Kathmandu","Ten Plus Two Humanities,Ten Plus Two Education,Ten Plus Two Management,Ten Plus Two Science",http://edusanjal.com/college/active-academy-college,Private,,,,,
Pinnacle Higher Secondary School and College,HSEB,"977-1-5544023, 5524723",info@pinnacle.edu.np,http://www.pinnacle.edu.np/,Lagankhel       ,Lalitpur,Bagmati," Pinnacle Academy/ College Lagankhel, Lalitpur, Nepal.","Ten Plus Two Humanities,Ten Plus Two Management,Ten Plus Two Science",http://edusanjal.com/college/pinnacle-higher-secondary-school-and-college,Private,,,,,
Everest Multiple College-Thamel,HSEB,"977-1-4352224, 4352358",emc@emc.edu.np,http://www.emc.edu.np/,"Galkopakha, Thamel       ",Kathmandu,Bagmati,"Galkopakha, Thamel  Kathmandu   Bagmati","Ten Plus Two Science,Ten Plus Two Management,Ten Plus Two Humanities",http://edusanjal.com/college/everest-college-multiple-studies,Private,,,,,
National College of Computer Studies (NCCS),HSEB,"977-1-4251711,4267961",info@nccs.edu.np,http://www.nccs.edu.np/,Paknajol       ,Kathmandu,Bagmati," National College of Computer Studies Paknajol, Kathmandu",Ten Plus Two Management ; 501;,http://edusanjal.com/college/national-college-computer-studies,Private,,,,,
United Academy and College,HSEB,"977-1-5537527, 5537530, 5533192",ucollege@united.edu.np,http://www.united.edu.np/,Satdobato       ,Lalitpur,Bagmati," United Academy College G.P.O. box: 8975 EPC 1195, Lalitpur, Nepal","Ten Plus Two Humanities ; 35;,Ten Plus Two Science ; 600;,Ten Plus Two Management ; 600;",http://edusanjal.com/college/united-academy-and-college,Private,,,,,
Texas International College,HSEB,"977-1-4479017, 4483955",texasintl@edu.np,http://www.texasintl.edu.np/,Chabhil       ,Kathmandu,Bagmati," Texas International College Mitrapark, Chabhil, Kathmandu","Ten Plus Two Management,Ten Plus Two Science,Ten Plus Two Humanities",http://edusanjal.com/college/texas-international-higher-secondary-school-and-college,Private,,,,,
Prasadi Academy Higher Secondary School,HSEB,"977-1-5530562, 5541117",info@prasadi.edu.np,http://www.prasadi.edu.np/,Manbhawan       ,Lalitpur,Bagmati," Prasadi Academy Manbhavan, Tafalhon, Lalitpur, GPO 8975, EPC 1186","Ten Plus Two Management ; 320; ; 63550;,Ten Plus Two Science ; 280; ; 82550;",http://edusanjal.com/college/prasadi-academy-higher-secondary-school,Private,,,,,
Sigma College,HSEB,977-1-4358484,info@sigmacollege.com,http://sigmacollege.com/,Sorakhutte       ,Kathmandu,Bagmati," Sigma College Sorakhutte, Kathmandu","Ten Plus Two Science,Ten Plus Two Management,Ten Plus Two Humanities,Ten Plus Two Education",http://edusanjal.com/college/sigma-college,Private,,,,,
Galaxy Public School,HSEB,"977-1-4410076,4414584",galaxy@enet.com.np,http://www.galaxy.edu.np/,Gyaneshwor       ,Kathmandu,Bagmati," Galaxy Eduction Foundation P.O. Box No.: 4901 Gyaneshwor, Kathmandu, Nepal","Ten Plus Two Management,Ten Plus Two Science",http://edusanjal.com/college/galaxy-public-school,Private,,,,,
Brilliant Multiple Campus,HSEB,"977-1-4478687, 4488714, 4495736",,http://www.brilliant.edu.np/,Siphal       ,Kathmandu,Bagmati," Brilliant Multiple Campus/Brilliant Educational Higher Secondary School Siphal, Kathmandu,","Ten Plus Two Humanities,Ten Plus Two Education,Ten Plus Two Management",http://edusanjal.com/college/brilliant-multiple-campus,Private,,,,,
KIST College,HSEB,"977-1-4434990,4434178",kist@info.com.np,http://www.kist.edu.np/,Kamalpokhari       ,Kathmandu,Bagmati," KIST College PO Box: 3928, Kamalpokhari, Kathmandu, Nepal","Ten Plus Two Management,Ten Plus Two Science",http://edusanjal.com/college/kist-college,Private,,,,,
Bhanubhakta Memorial College,HSEB,"977-1-4435144,4419474",bhanubhakta@wlink.com.np,http://www.bbmc.edu.np/,Panipokhari       ,Kathmandu,Bagmati," Bhanubhakta Memorial College P.O. Box: 10597, Panipokhari (Opp. to Japanese Embassy), Ktm, Nepal","Ten Plus Two Management,Ten Plus Two Science",http://edusanjal.com/college/bhanubhakta-memorial-college,Private,,,,,
Brihaspati Vidya Sadan,HSEB,"977-1-4419878, 4418030",info@bvs.edu.np,http://www.bvs.edu.np/,Naxal       ,Kathmandu,Bagmati," Brihaspati Vidyasadan BalMandir Compound, Naxal, Kathmandu","Ten Plus Two Management,Ten Plus Two Science",http://edusanjal.com/college/brihaspati-vidya-sadan,Private,,,,,
Siddhartha Vanasthali Institute,HSEB,"977-1-4350884,4350075",rupak@sidarth.wlink.com.np,http://www.svi.edu.np/,Balaju       ,Kathmandu,Bagmati,Balaju  Kathmandu   Bagmati,"Ten Plus Two Management,Ten Plus Two Science",http://edusanjal.com/college/siddhartha-vanasthali-institute,Private,,,,,
Saipal Academy,HSEB,"977-1-4009054, 4009055",saipal@mail.com.np,http://www.saipal.edu.np/,Dhumbarahi       ,Kathmandu,Bagmati,Dhumbarahi  Kathmandu   Bagmati,"Ten Plus Two Management,Ten Plus Two Science",http://edusanjal.com/college/saipal-academy,Private,,,,,
Everest International College and Higher Secondary School,HSEB,"977-1-4274590, 2030200",info@eicollege.com,http://www.eicollegeedu.com/,"Soaltee Mode, Kalimati       ",Kathmandu,Bagmati,"Soaltee Mode, Kalimati  Kathmandu   Bagmati","Ten Plus Two Science,Ten Plus Two Humanities,Ten Plus Two Management",http://edusanjal.com/college/everest-international-college-and-higher-secondary-school,Private,,,,,
Gyankunj Higher Secondary School and College,HSEB,"977-1-4270133, 4272330, 4272334",info@gyankunjfoundation.edu.np,http://www.gyankunjfoundation.edu.np/,Ravibhawan       ,Kathmandu,Bagmati,Ravibhawan  Kathmandu   Bagmati,"Ten Plus Two Science,Ten Plus Two Management,Ten Plus Two Humanities",http://edusanjal.com/college/gyankunj-higher-secondary-school-and-college,Private,,,,,
Richmond International College,HSEB,"977-1-4275927, 4273861",info@richmond.edu.np,http://www.richmond.edu.np/,Kalanki       ,Kathmandu,Bagmati,Kalanki  Kathmandu   Bagmati,"Ten Plus Two Humanities,Ten Plus Two Education,Ten Plus Two Management",http://edusanjal.com/college/richmond-international-college,Private,,,,,
Pasang Lhamu Sherpa Memorial College,HSEB,"977-1-4363000, 4382617, 4353810",info@plsmc.edu.np,http://plsmc.edu.np/,Samakhusi       ,Kathmandu,Bagmati,Samakhusi  Kathmandu   Bagmati,"Ten Plus Two Humanities,Ten Plus Two Education,Ten Plus Two Management,Ten Plus Two Science",http://edusanjal.com/college/pasang-lhamu-sherpa-memorial-college,Private,,,,,
Prajjwal Collegiate Academy,HSEB,977-23 529748,,,        ,Jhapa,Mechi,Jhapa  Jhapa   Mechi,Ten Plus Two Management,http://edusanjal.com/college/projjwal-collegiate-academy,Private,,,,,
Kankai Multiple Campus,HSEB,023-550153,,,Surunga       ,Jhapa,Mechi,Surunga  Jhapa   Mechi,"Ten Plus Two Management,Ten Plus Two Education",http://edusanjal.com/college/kankai-multiple-campus,Private,,,,,
Gomendra Higher Secondary School and College,HSEB,"977-23- 540892, 540437",,http://www.gomendracollege.edu.np/,        ,Jhapa,Mechi,Jhapa  Jhapa   Mechi,Ten Plus Two Management,http://edusanjal.com/college/gomendra-higher-secondary-school-and-college,Private,,,,,
BST College,HSEB,"977-1-4354704, 4353708",info@bst.edu.np,http://www.bst.edu.np/,Gongabu       ,Kathmandu,Bagmati,Gongabu  Kathmandu   Bagmati,"Ten Plus Two Humanities,Ten Plus Two Management,Ten Plus Two Science",http://edusanjal.com/college/bst-college,Private,,,,,
GS College,HSEB,977-1-4672431,gsc_school@yahoo.com,http://www.gscollege.edu.np/,Kalimati       ,Kathmandu,Bagmati,Kalimati  Kathmandu   Bagmati,"Ten Plus Two Science,Ten Plus Two Management,Ten Plus Two Humanities",http://edusanjal.com/college/gs-college,Private,,,,,
Unique Academy and College,HSEB,"977-1-5538625, 5552200, 5550010",info@uniquecollege.com.np,http://www.uniquecollege.com.np/,Kumaripati       ,Lalitpur,Bagmati," Unique Academy and Unique College of Management GPO Box: 5593 Kumaripati, Lalitpur","Ten Plus Two Management,Ten Plus Two Science",http://edusanjal.com/college/unique-academy-and-college,Private,,,,,
Gyanodaya Bal Batika Higher Secondary School,HSEB,977-1-5521741,gbbs@wlink.com.np,http://www.gyanodaya.com/,Sanepa       ,Lalitpur,Bagmati," Gyanodaya Bal Batika H S School and College Sanepa, Lalitpur, Nepal P.O. Box: 2457, Kathmandu, Nepal","Ten Plus Two Science,Ten Plus Two Management,Ten Plus Two Humanities",http://edusanjal.com/college/gyanodaya-bal-batika-higher-secondary-school,Private,,,,,
Milestone International College,HSEB,"977-1-5539060, 5547582",info@milestone.edu.np,http://www.milestone.edu.np/,Balkumari       ,Lalitpur,Bagmati," Milestone International College Balkumari, Lalitpur","Ten Plus Two Science,Ten Plus Two Humanities,Ten Plus Two Management",http://edusanjal.com/college/milestone-international-college,Private,,,,,
Global Higher Secondary School/ Global Village College,HSEB,"977-1-5523374, 5522521, 5542332",gess@enet.com.np,,Lagankhel       ,Lalitpur,Bagmati," Global H S School/ Global Village College Lagankhel, Lalitpur","Ten Plus Two Science,Ten Plus Two Management,Ten Plus Two Humanities",http://edusanjal.com/college/global-higher-secondary-school-global-village-college,Private,,,,,
Cosmopolitan College,HSEB,"977-1-4462867, 4481893",info@cosmopolitan.edu.np,http://www.cosmopolitan.edu.np/,Chabhil       ,Kathmandu,Bagmati," Cosmopolitan College Chabhil, Kathmandu, Nepal GPO Box: 8973","Ten Plus Two Humanities,Ten Plus Two Management",http://edusanjal.com/college/cosmopolitan-college,Private,,,,,
Liverpool International College,HSEB,"977-1- 4781230, 4780902, 4782509",nfo@liverpool.edu.np,http://liverpool.edu.np/,New Baneshwor       ,Kathmandu,Bagmati,New Baneshwor  Kathmandu   Bagmati,"Ten Plus Two Science,Ten Plus Two Management",http://edusanjal.com/college/liverpool-international-college,Private,,,,,
Ideal English Higher Secondary School,HSEB,"977-1-4470363, 4498858",info@idal.edu.np,http://www.ideal.edu.np/,Chabhil       ,Kathmandu,Bagmati," Ideal English H S School Maijubahal, Chabahil, P. O. Box: 5308, Kathmandu","Ten Plus Two Science,Ten Plus Two Management,Ten Plus Two Humanities",http://edusanjal.com/college/ideal-english-higher-secondary-school,Private,,,,,
Madan Bhandari Memorial College,HSEB,977-1-4464775,mbmcollege@wlink.com.np,http://www.mbmc.edu.np/,Binayaknagar       ,Kathmandu,Bagmati," Madan Bhandari Memorial College PO Box: 5640 Binayaknagar, (Opposite to Anamnagar), New Baneshwor, Kathmandu","Ten Plus Two Science,Ten Plus Two Management,Ten Plus Two Humanities,Ten Plus Two Education",http://edusanjal.com/college/madan-bhandari-memorial-college,Private,,,,,
Rainbow International Higher Secondary School and College,HSEB,"977-1-4280842, 4281090, 4278169",,,"Chhauni, Dallu       ",Kathmandu,Bagmati,"Chhauni, Dallu  Kathmandu   Bagmati","Ten Plus Two Management,Ten Plus Two Education,Ten Plus Two Humanities",http://edusanjal.com/college/rainbow-international-higher-secondary-school-and-college,Private,,,,,
SeaBird International College,HSEB,977-1- 6631448,info@seabird.edu.np,http://www.seabird.edu.np/,Madhyapur Thimi       ,Bhaktapur,Bagmati," Seabird International + 2 College (Higher Secondary School) Madhyapur Thimi, Shankhadhar Chowk Bhaktapur, Nepal","Ten Plus Two Science,Ten Plus Two Management,Ten Plus Two Education",http://edusanjal.com/college/seabird-international-college,Private,,,,,
Mankamana Higher Secondary School/ Jaya Multiple Campus,HSEB,"977-1-2073467, 4910340, 4910330",info@jdmmc.com.np,http://jdmmc.com.np/,Jorpati       ,Kathmandu,Bagmati," Mankamana H S School P.O.Box: 3798 Jorpati-7, Kathmandu","Ten Plus Two Science,Ten Plus Two Management,Ten Plus Two Humanities",http://edusanjal.com/college/mankamana-higher-secondary-school-jaya-multiple-campus,Private,,,,,
Universal Higher Secondary School- Dhumbarahi,HSEB,"01-4437535,01-4437545",usbhs@yahoo.com,http://universalhss.edu.np/,Dhumbarahi       ,Kathmandu,Bagmati,Dhumbarahi  Kathmandu   Bagmati,"Ten Plus Two Science,Ten Plus Two Management",http://edusanjal.com/college/universal-english-higher-secondary-school,Private,,,,,
Herald International College,HSEB,"977-1-4720672, 4720930",heraldcolle@wlink.com.np,http://www.heraldintlcollege.edu.np/,Maharajgunj       ,Kathmandu,Bagmati," Herald International College Narayangopal Chowk, Maharajgunj Kathmandu, Nepal GPO Box: 11306","Ten Plus Two Science,Ten Plus Two Management,Ten Plus Two Humanities",http://edusanjal.com/college/herald-international-college,Private,,,,,
Alliance Academy Higher Secondary School,HSEB,"977-1-4481410,4491598",info@alliance.edu.np,http://www.alliance.edu.np/,Thapagaun       ,Kathmandu,Bagmati," Alliance Academy H S School Bhupi Sherchan Marga, Kathmandu","Ten Plus Two Humanities,Ten Plus Two Management,Ten Plus Two Science",http://edusanjal.com/college/alliance-academy-higher-secondary-school,Private,,,,,
Sirius College,HSEB,"977-1-4272120, 4272627",siriusedu@wlink.com.np,http://www.siriusedunepal.com/,Bafal       ,Kathmandu,Bagmati," Sirius HIgher Secondary School and College Bafal, Kathmandu-13","Ten Plus Two Science,Ten Plus Two Management",http://edusanjal.com/college/sirius-college,Private,,,,,
Triyog Higher Secondary School,HSEB,"977-1-4365285, 4381695",ths@triyog.wlink.com.np,http://www.triyog.edu.np/,Dhapasi       ,Kathmandu,Bagmati," Triyog H S School Dhapasi-6, Kathmandu P.O. Box: 1909",Ten Plus Two Management,http://edusanjal.com/college/triyog-higher-secondary-school,Private,,,,,
Himalaya International Model Higher Secondary School (HIMS),HSEB,"977-1-4910714, 4910581",,http://www.himsschool.com/,Jorpati       ,Kathmandu,Bagmati," Himalaya International Model H S School Narayanatar, Kathmandu","Ten Plus Two Science,Ten Plus Two Management",http://edusanjal.com/college/himalaya-international-model-higher-secondary-school,Private,,,,,
Grammar Public Higher Secondary School,HSEB,"977-1-4601865, 4600367,4601213",info@gphss.edu.np,http://www.gphss.edu.np/,Koteshwor       ,Kathmandu,Bagmati," Grammar Public H S School/ College SetiopiMarga,Koteshwor-35 Kathmandu,Nepal","Ten Plus Two Science,Ten Plus Two Management",http://edusanjal.com/college/grammar-public-higher-secondary-school,Private,,,,,
Cambridge International College,HSEB,977-1-4273858,,,Kalanki       ,Kathmandu,Bagmati," Cambridge International Boarding H S School and College Kalanki-14, Kathmandu","Ten Plus Two Humanities,Ten Plus Two Education,Ten Plus Two Management",http://edusanjal.com/college/cambridge-international-college,Private,,,,,
Bright Land English Higher Secondary School Kathmandu,HSEB,"977-1-4356041, 4361443",info@brightland.edu.np,http://brightland.edu.np/,Balaju       ,Kathmandu,Bagmati," Bright Land English H S School Balaju, Kathmandu",Ten Plus Two Management,http://edusanjal.com/college/bright-land-english-higher-secondary-school,Private,,,,,
Pushpalal Memorial College (PLMC),HSEB,"977-1-4477177, 4461214",pushpalalcollege@gmail.com,http://www.pushpalalcollege.com/,Chabhil       ,Kathmandu,Bagmati,Chabhil  Kathmandu   Bagmati,"Ten Plus Two Management,Ten Plus Two Humanities",http://edusanjal.com/college/pushpalal-memorial-college,Private,,,,,
Viswa Niketan Higher Secondary School,HSEB,"977-1-4266306, 4248838, 4265335",,http://www.vnhss.edu.np/,Tripureshwar       ,Kathmandu,Bagmati," Viswa Niketan H S School Tripureshwar, Kathmandu","Ten Plus Two Humanities,Ten Plus Two Management,Ten Plus Two Science",http://edusanjal.com/college/viswa-niketan-higher-secondary-school,Private,,,,,
Arunima Higher Secondary School School and College,HSEB,"977-1-4478574, 4470223",aef@arunima.edu.np,http://www.arunima.edu.np/,Bauddha       ,Kathmandu,Bagmati," Arunima H S School and College PO Box: 11598 Bauddha,Kumarigal Kathmandu","Ten Plus Two Humanities,Ten Plus Two Management,Ten Plus Two Science",http://edusanjal.com/college/arunima-higher-secondary-school-school-and-college,Private,,,,,
British Gurkha College,HSEB,"977-1-4017806, 4378483",bgc@graduate.org,http://www.britishgurkhacollege.com.np/,Bansbari       ,Kathmandu,Bagmati," British Gurkha College Bansbari, Kathmandu , Nepal PO Box: 8975 EPC 4139 SMS Service: Type bgc<space>info and Send to 4343","Ten Plus Two Science,Ten Plus Two Humanities,Ten Plus Two Management",http://edusanjal.com/college/british-gurkha-college,Private,,,,,
LRI College,HSEB,"School:+977-1-4271188, 4278515, 4276170",,http://lrischool.edu.np/,"Kalankisthan, Kalanki       ",Kathmandu,Bagmati," Learning Realm International Higher Secondary School Kalanki, Kathmandu","Ten Plus Two Science ; 50;,Ten Plus Two Management ; 50;",http://edusanjal.com/college/lri-college,Private,,,,,
Ambition Academy Higher Secondary School,HSEB,"977- 1 -4463079, 4470880,",info@ambition.edu.np,http://ambition.edu.np/,"Old Baneshwor,         ",Kathmandu,Bagmati," Ambition Academy H S School Old Baneshwor, P O Box: 10743 Kathmandu,Nepal","Ten Plus Two Humanities ; 40;,Ten Plus Two Management ; 300;,Ten Plus Two Science ; 300;",http://edusanjal.com/college/ambition-academy-higher-secondary-school,Private,,,,,
Anupam (Unique) English BoardingHigher Secondary School,HSEB,"977-1-4427598, 4422726, 4432822",anupam@infoclub.com.np,http://www.avs.edu.np/,Lazimpat       ,Kathmandu,Bagmati," Anupam Vidya Sadan English Medium Secondary Boarding School Sakuna Marg & Kholagal Marga, Lazimpat, Kathmandu",Ten Plus Two Management,http://edusanjal.com/college/anupam-unique-english-boardinghigher-secondary-school,Private,,,,,
Ed- Mark Academy Higher Secondary School,HSEB,"977-1-4270881, 4672759",info@edmark.edu.np,http://edmark.edu.np/,Kalanki       ,Kathmandu,Bagmati," Ed-Mark Academy H S School Kalanki -14, Kathmandu","Ten Plus Two Management,Ten Plus Two Science,Ten Plus Two Humanities",http://edusanjal.com/college/ed-mark-academy-higher-secondary-school,Private,,,,,
Jubilant College,HSEB,"977-1-4272725, 4272511",info@jubilantcollege.edu.np,http://www.jubilantcollege.edu.np/,Kalimati       ,Kathmandu,Bagmati," Jubilant College GPO Box: 26234 Kalimati, Kathmandu, nepal","Ten Plus Two Science,Ten Plus Two Management",http://edusanjal.com/college/jubilant-college,Private,,,,,
Gillette Higher Secondary School,HSEB,"977-1-4279521, 4283036",info@gilletteschoolandcollege.edu.np,http://www.gilletteschoolandcollege.edu.np/,Kalimati       ,Kathmandu,Bagmati,Kalimati  Kathmandu   Bagmati,"Ten Plus Two Management,Ten Plus Two Science,Ten Plus Two Humanities",http://edusanjal.com/college/gillette-boarding-higher-secondary-school,Private,,,,,
Navodit College,HSEB,"977-1-4352273, 4360281",info@navodit.edu.np,http://www.navodit.edu.np/,Samakhusi       ,Kathmandu,Bagmati," Navodit College and Navodit Vidhya Kunja Higher Secondary School Samakhusi, Kathmandu","Ten Plus Two Management,Ten Plus Two Humanities,Ten Plus Two Education",http://edusanjal.com/college/navodit-college,Private,,,,,
Himalayan WhiteHouse International College,HSEB,"977-1-4487562, 4494138",whitehouse@mail.com.np,http://www.whitehouse.edu.np/,"Subidhanagar, Tinkune       ",Kathmandu,Bagmati,"Subidhanagar, Tinkune  Kathmandu   Bagmati","Ten Plus Two Management,Ten Plus Two Science",http://edusanjal.com/college/himalayan-whitehouse-international-college,Private,,,,,
Nobel Academy,HSEB,"977-1-4781401, 4781515, 4780232",info@nobel.edu.np,http://www.nobel.edu.np/,New Baneshwor       ,Kathmandu,Bagmati," Nobel Academy GPO BOX 12160 New Baneshwor, Kathmandu","Ten Plus Two Science ; 400;,Ten Plus Two Management ; 300;",http://edusanjal.com/college/nobel-academy,Private,,,,,
Model Multiple College,HSEB,"977-41-523666, 525408",mmc.jnk@gmail.com,,        ,Dhanusa,Janakpur,Janakpur  Dhanusa   Janakpur,"Ten Plus Two Humanities,Ten Plus Two Education,Ten Plus Two Management,Ten Plus Two Science",http://edusanjal.com/college/model-multiple-college,Private,,,,,
Hetauda School of Management and Social Sciences,HSEB,"977-57-524701, 524711",info@hsmonline.edu.np,http://www.hsmonline.edu.np/,Hetauda-4       ,Makwanpur,Narayani," Hetauda School of Management & Social Sciences Campus Hetauda - 4, Makawanpur, Nepal","Ten Plus Two Science,Ten Plus Two Management,Ten Plus Two Education",http://edusanjal.com/college/hetauda-school-management-and-social-sciences,Private,,,,,
Oxbridge International Higher Secondary School/College,HSEB,977-1-5523711,info@oxbridge.edu.np,http://www.oxbridgeedufoundation.com/,"Mahalaxmisthan, Lagankhel       ",Lalitpur,Bagmati,"Oxbridge International HS School and College PO Box: 348, Lalitpur Mahalaxmisthan,Lagankhel, Lalitpur, Nepal","Ten Plus Two Science,Ten Plus Two Management,Ten Plus Two Humanities",http://edusanjal.com/college/oxbridge-international-higher-secondary-schoolcollege,Private,,,,,
Nepal National Education Academy,HSEB,977-1-4356571,info@nneapt.edu.np,http://www.nneapt.edu.np/,Balaju       ,Kathmandu,Bagmati," Nepal National Education Academy (N-NEA) Banasthali Chowk, Balaju Kathmandu, Nepal P. O. BOX: 8909",Ten Plus Two Science,http://edusanjal.com/college/nepal-national-education-academy,Private,,,,,
Ullens School,HSEB,977-1-5570724,info@ullens.edu.np,http://ullens.edu.np/,Khumaltar       ,Lalitpur,Bagmati," Ullens School Khumaltar-15, Lalitpur,Nepal","Ten Plus Two Management ; 60;,Ten Plus Two Science ; 30;",http://edusanjal.com/college/ullens-school,Private,,,,,
Southwestern State College,HSEB,"977-1-4355457, 4355458",info@southwestern.edu.np,http://www.southwestern.edu.np/,Basundhara       ,Kathmandu,Bagmati," Southwestern State College Post Box: 8975 EPC 5343 Basundhara, Ring Road, Kathmandu, Nepal","Ten Plus Two Humanities,Ten Plus Two Management,Ten Plus Two Science",http://edusanjal.com/college/southwestern-state-college,Private,,,,,
Lumbini Adarsh Degree College,HSEB,977-78- 540405,,,kawasoti-5       ,Nawalparasi,Lumbini,kawasoti-5  Nawalparasi   Lumbini,Ten Plus Two Management,http://edusanjal.com/college/lumbini-adarsh-degree-college,Private,,,,,
Presidency College of Management Sciences,HSEB,+977-56-524278 (BBA) +977-56-525717 (10+2),info@pcms.edu.np,http://www.pcms.edu.np/,Bharatpur-10       ,Chitwan,Narayani," Presidency College of Management Sciences, Bharatpur, Chitwan",Ten Plus Two Management,http://edusanjal.com/college/presidency-college-management-sciences,Private,,,,,
Shreenagar Integrated College,HSEB,"977-075-520739, 075-521123",sicol_tansen@yahoo.com,,"Holangdi, Tansen, Buddha Bihar       ",Palpa,Lumbini,"Holangdi, Tansen, Buddha Bihar  Palpa   Lumbini","Ten Plus Two Science,Ten Plus Two Management",http://edusanjal.com/college/shreenagar-integrated-college,Private,,,,,
Unique College,HSEB,977-23- 582150,lekhnathsedai@yahoo.com,,Damak-13       ,Jhapa,Mechi,Damak-13  Jhapa   Mechi,"Ten Plus Two Education,Ten Plus Two Management",http://edusanjal.com/college/unique-college,Private,,,,,
Classic College International,HSEB,"977-1-6225708, 4110135, 4110433",classicic@wlink.com.np,http://www.classiccollege.edu.np/,"Tinganga,         ",Kathmandu,Bagmati," Classic College International Pingla Marg, Opposite Tilganga Eye Hospital Kathmandu-9","Ten Plus Two Science,Ten Plus Two Management,Ten Plus Two Humanities",http://edusanjal.com/college/classic-college-international,Private,,,,,
Bajra International College,HSEB,"977-1-2190269, 4491415",bajra@enet.com,,Jorpati       ,Kathmandu,Bagmati," For Tribhuvan University Program Bajra International College PO Box: 21726, Boudha, Jorpati, Kathmandu (Bajra Building) For HSEB Program Saraswati Higher Secondary School Under the Management of BIC Jorpati Kathmandu","Ten Plus Two Humanities,Ten Plus Two Management",http://edusanjal.com/college/bajra-international-college,Private,,,,,
Asian College of Higher Studies,HSEB,"977-1-5000266, 5000156",info@acm.edu.np,http://www.acm.edu.np/,Ekantakuna       ,Lalitpur,Bagmati," Asian College of Higher Studies Ekantakuna, Jwalakhel, Lalitpur",Ten Plus Two Management,http://edusanjal.com/college/asian-college-higher-studies,Private,,,,,
Kamana International College,HSEB,977-1-4880422,info@kic.edu.np,http://www.kic.edu.np/,Banasthali       ,Kathmandu,Bagmati,Banasthali  Kathmandu   Bagmati,"Ten Plus Two Science,Ten Plus Two Management,Ten Plus Two Humanities",http://edusanjal.com/college/kamana-international-college,Private,,,,,
Bright Future College,HSEB,"977-1-5534319, 5521997",nrajpaneru@hotmail.com,http://bfc.edu.np/,Satdobato       ,Lalitpur,Bagmati," Bright Future College Satdobato-15, Lalitpur","Ten Plus Two Humanities,Ten Plus Two Education,Ten Plus Two Management",http://edusanjal.com/college/bright-future-college,Private,,,,,
Himalaya College,HSEB,"977-1-4600518, 4600320",,,Koteshwor       ,Kathmandu,Bagmati," Himalaya College Koteshwor-35, Kathmandu","Ten Plus Two Humanities,Ten Plus Two Management",http://edusanjal.com/college/himalaya-college,Private,,,,,
Himalaya Vidya Mandir Higher Secondary School,HSEB,"977-1-4471579, 4472879",hvm@wlink.com.np,http://www.hvmschool.com/,"Siphal, Kalopul       ",Kathmandu,Bagmati,"Siphal, Kalopul  Kathmandu   Bagmati","Ten Plus Two Science,Ten Plus Two Management",http://edusanjal.com/college/himalaya-vidya-mandir-higher-secondary-school,Private,,,,,
Janapriya Multiple Campus,HSEB,"977-61-522287, 531822, 535287",info@janapriya.edu.np,http://www.janapriya.edu.np/,"Pokhara,         ",Kaski,Gandaki,"Pokhara, Kaski  Kaski   Gandaki","Ten Plus Two Management,Ten Plus Two Science,Ten Plus Two Humanities,Ten Plus Two Education",http://edusanjal.com/college/janapriya-multiple-campus,Private,,,,,
Schems College,HSEB,977-1-4017603,schemscollege@wlink.com.np,http://www.schemscollege.edu.np/,Maharajgunj       ,Kathmandu,Bagmati," Schems College School of Environmental Management and Sustainable Development Brahma Cottage, Maharajgunj, Kathmandu, Nepal GPO Box: 8975, EPC: 4009","Ten Plus Two Science,Ten Plus Two Management",http://edusanjal.com/college/schems-college,Private,,,,,
Nepal Mega College,HSEB,"977-1-4252488, 4239450",info@nepalmegacollege.com,http://www.nepalmegacollege.edu.np/,Babarmahal       ,Kathmandu,Bagmati,". Nepal Mega College GPO Box: 13325 Babarmahal, Kathmandu, Nepal","Ten Plus Two Humanities,Ten Plus Two Management,Ten Plus Two Science",http://edusanjal.com/college/nepal-mega-college,Private,,,,,
Zenith International College (Hetauda),HSEB,977-57-52278,zenith_college@yahoo.com,http://zenithcollegehtd.com/,Hetauda       ,Makwanpur,Narayani," Zenith International College Kantirajpath, Hetauda -4 Nepal",Ten Plus Two Management,http://edusanjal.com/college/zenith-international-college-hetauda,Private,,,,,
Aberdeen International College,HSEB,"977-1-5536298, 5530889",aberdeen.aief@gmail.com,,Jwalakhel       ,Lalitpur,Bagmati," Aberdeen International College and PTI Higher Secondary School Jawalakhel, Lalitpur","Ten Plus Two Humanities,Ten Plus Two Management,Ten Plus Two Science",http://edusanjal.com/college/aberdeen-international-college,Private,,,,,
VS Niketan Higher Secondary School,HSEB,"977-1-4622715, 4622073",info@vsniketan.edu.np,http://www.vsniketan.edu.np/,Minbhawan       ,Kathmandu,Bagmati, V.S Niketan Higher Secondary School (Under the Management of VS Education Foundation),"Ten Plus Two Management ; 200;,Ten Plus Two Science ; 320;",http://edusanjal.com/college/vs-niketan-higher-secondary-school,Private,,,,,
Ace Higher Secondary School Kathmandu,HSEB,"977-1-4474712, 4469019",ahs@ace.edu.np,http://www.ahs.edu.np/,New Baneshwor       ,Kathmandu,Bagmati," Ace Higher Secondary School GPO Box: 10001, New Baneshwor, Kathmandu, Nepal",Ten Plus Two Management ; 280;,http://edusanjal.com/college/ace-higher-secondary-school,Private,,,,,
National School of Sciences Higher Secondary School,HSEB,"977-1-4423706, 4422050, 4435408, 4429035",info@nist.edu.np,http://www.nist.edu.np/,Lainchour       ,Kathmandu,Bagmati," National School of Sciences (NSS) Faculty of Science and Management GPO Box: 8659, Lainchaur, Kathmandu","Ten Plus Two Management,Ten Plus Two Science",http://edusanjal.com/college/national-school-sciences-higher-secondary-school,Private,,,,,
Kanjirowa National Higher Secondary School,HSEB,"977-1-4601133, 4602574",kanjisl@mail.com.np,http://www.kanjisl.edu.np/,Koteshwor       ,Kathmandu,Bagmati," Kanjirowa National School Koteshwor, Near Balkumari Bridge, Kathmandu","Ten Plus Two Science,Ten Plus Two Management",http://edusanjal.com/college/kanjirowa-national-higher-secondary-school,Private,,,,,
Arniko International Academy,HSEB,977-1-5529905,info@arniko.edu.np,http://www.arniko.edu.np/,"Talchikhel, Satdobato       ",Lalitpur,Bagmati," Arniko International Academy Higher Secondary School Talchikhel, Satdobato, Lalitpur, Nepal","Ten Plus Two Humanities,Ten Plus Two Management,Ten Plus Two Science",http://edusanjal.com/college/arniko-international-academy,Private,,,,,
Valley Public Higher Secondary School,HSEB,"977-1-4370987, 4376672",vpbhskri@hotmail.com,http://www.vphss.edu.np/,Golfutar       ,Kathmandu,Bagmati," Valley Public Higher Secondary School Mahankal VDC, 3, Golfutar, Sundarbasti, Bhangal","Ten Plus Two Humanities,Ten Plus Two Management,Ten Plus Two Science",http://edusanjal.com/college/valley-public-higher-secondary-school,Private,,,,,
Olympia World Higher Secondary School,HSEB,"977-1-4220449, 4220265",admissions@olympia.edu.np,http://www.olympia.edu.np/,Babarmahal       ,Kathmandu,Bagmati," Olympia World College and Olympia World H. S. School Babarmahal, Kathmandu, Nepal","Ten Plus Two Management,Ten Plus Two Science",http://edusanjal.com/college/olympia-world-higher-secondary-school,Private,,,,,
Rising Star College of Management,HSEB,"977-1-4273761, 4271467",com@risingstar.edu.np,http://www.risingstar.edu.np/,Bafal       ,Kathmandu,Bagmati," Rising Star College of Management Bafal, Kathmandu, Nepal Post box No: 8975, EPC: 2199",Ten Plus Two Management,http://edusanjal.com/college/rising-star-college-management,Private,,,,,
National Institute of Sciences (PATAN-NIST),HSEB,"977-1-5532854, 5528697",nispatan@wlink.com.np,http://www.nistpatan.edu.np/,Bakhundole       ,Lalitpur,Bagmati," National Institute of Sciences Bakhundole, Lalitpur (Near British School)","Ten Plus Two Science,Ten Plus Two Management",http://edusanjal.com/college/national-institute-sciences,Private,,,,,
Whitehouse Higher Secondary School,HSEB,"01-5537852, 5536741",whitehousecollege4@gmail.com,http://aitm.edu.np/,Khumaltar       ,Lalitpur,Bagmati," Whitehouse HSS and College Knowledge Village, Khumaltar Heights Satdobato, Lalitpur, Nepal","Ten Plus Two Science,Ten Plus Two Management",http://edusanjal.com/college/whitehouse-higher-secondary-school,Private,,,,,
Brooklyn College,HSEB,"977-1-4375365, 4375429",info@befnepal.org,http://www.befnepal.org/,Sukedhara       ,Kathmandu,Bagmati," Brooklyn Education Foundation Sukedhara, RingRoad, Kathmandu, Nepal","Ten Plus Two Science,Ten Plus Two Management,Ten Plus Two Humanities",http://edusanjal.com/college/brooklyn-college,Private,,,,,
Baylor International Academy,HSEB,977-11-663165,info@baylor.edu.np,http://baylor.edu.np/,"Banepa-10, Godam Chowk, Kavre       ",Kavrepalanchok,Bagmati," Baylor International Academy/Dipika College Banepa-10, Godam Chowk, Kavre, Nepal","Ten Plus Two Management,Ten Plus Two Science",http://edusanjal.com/college/baylor-international-academy,Private,,,,,
Takshashila Academy,HSEB,"977-1-4357332, 4354269",info@tsa.edu.np,http://www.tsa.edu.np/,Samakhusi       ,Kathmandu,Bagmati," Takshashila Academy Opposite to Radhaswami Satsang Center Samakhusi, Kathmandu,Nepal","Ten Plus Two Science,Ten Plus Two Management,Ten Plus Two Humanities",http://edusanjal.com/college/takshashila-academy,Private,,,,,
Siddhartha International College,HSEB,,,,"Murli Bazar, Birgunj       ",Parsa,Narayani,"Murli Bazar, Birgunj  Parsa   Narayani","Ten Plus Two Management,Ten Plus Two Education",http://edusanjal.com/college/siddhartha-international-college,Private,,,,,
Everest Florida Higher Secondary School,HSEB,977-1-4620522/523,corporate@everestflorida.com,http://everestflorida.com/,Shantinagar Gate-34       ,Kathmandu,Bagmati," Florida Education Network Pvt. Ltd Everest Florida HSS/College Florida Building, Shantinagar Gate-34","Ten Plus Two Science,Ten Plus Two Management,Ten Plus Two Humanities",http://edusanjal.com/college/everest-florida-higher-secondary-school,Private,,,,,
Shree Laligurans Rastriya Higher Secondary School/College,HSEB,"4782414, 4784628",info@laliguranscollege.edu.np,,"New Baneshwor, Shankhamul       ",Kathmandu,Bagmati,"New Baneshwor, Shankhamul  Kathmandu   Bagmati","Ten Plus Two Humanities,Ten Plus Two Management,Ten Plus Two Science",http://edusanjal.com/college/shree-laligurans-rastriya-higher-secondary-schoolcollege,Private,,,,,
Angels Heart Higher Secondary School,HSEB,977-1-4027207,info@angels.edu.np,,Manamainju-2       ,Kathmandu,Bagmati,Manamainju-2  Kathmandu   Bagmati,Ten Plus Two Management,http://edusanjal.com/college/angels-heart-higher-secondary-school,Private,,,,,
Babai Multiple Campus,HSEB,"084-420129, 421018",bmcbardiya@gmail.com,http://babaicampus.edu.np/,Gulariya       ,Bardiya,Bheri,Gulariya  Bardiya   Bheri,"Ten Plus Two Humanities,Ten Plus Two Management,Ten Plus Two Science,Ten Plus Two Education",http://edusanjal.com/college/babai-multiple-campus,Private,,,,,
Arunodaya Academy Higher Secondary School,HSEB,http://arunodaya.edu.np/,,http://arunodaya.edu.np/," -15, Dallu       ",Kathmandu,Bagmati,"Kathmandu-15, Dallu  Kathmandu   Bagmati","Ten Plus Two Management,Ten Plus Two Humanities",http://edusanjal.com/college/arunodaya-academy-higher-secondary-school,Private,,,,,
AIMS College,HSEB,"071-540350, 438457",,,Butwal-11       ,Rupandehi,Lumbini," AIMS COllege of Management Rajmarg Chauraha, Butwal-11, Rupandehi",Ten Plus Two Management,http://edusanjal.com/college/aims-college,Private,,,,,
Amity College Jhapa,HSEB,"023-542762, 621257",info@amity.edu.np,http://www.amity.edu.np/,"Anarmani-3, Birtamode        ",Jhapa,Mechi,"Anarmani-3, Birtamode   Jhapa   Mechi",Ten Plus Two Management,http://edusanjal.com/college/amity-college-jhapa,Private,,,,,
Mount Annapurna Campus,HSEB,"061-532636, 522650",macpokhara@gmail.com,,"Phoolbari, Pokhara-11       ",Kaski,Gandaki,"Phoolbari, Pokhara-11  Kaski   Gandaki","Ten Plus Two Management,Ten Plus Two Science",http://edusanjal.com/college/mount-annapurna-campus,Private,,,,,
Mission College,HSEB,977 31 521100,info@missioncollege.edu.np,http://missioncollege.edu.np/,"Rajbiraj,         ",Saptari,Sagarmatha,"Rajbiraj, Saptari  Saptari   Sagarmatha","Ten Plus Two Humanities,Ten Plus Two Education,Ten Plus Two Management,Ten Plus Two Science",http://edusanjal.com/college/mission-college,Private,,,,,
Shaheed Smarak College,HSEB,056-591031,,,"Bakhanpur, Sharada Nagar       ",Chitwan,Narayani,"Bakhanpur, Sharada Nagar  Chitwan   Narayani","Ten Plus Two Management,Ten Plus Two Humanities,Ten Plus Two Education",http://edusanjal.com/college/shaheed-smarak-college,Private,,,,,
Merryland College,HSEB,"021 535275, 536836",info@merrylandcollege.com.np,http://www.merrylandcollege.com.np/,"Rangeli Road, Biratnagar       ",Morang,Koshi,"Rangeli Road, Biratnagar  Morang   Koshi",Ten Plus Two Management,http://edusanjal.com/college/merryland-college,Private,,,,,
Damauli College of Higher Studies,HSEB,"065-560580, 560795",damaulicollege@yahoo.com,,Damauli Bazar       ,Tanahu,Gandaki,Damauli Bazar  Tanahu   Gandaki,"Ten Plus Two Management,Ten Plus Two Humanities,Ten Plus Two Education",http://edusanjal.com/college/damauli-college-higher-studies,Private,,,,,
Achievers College,HSEB,071-437529,,,"Shankarnagar-9, Janakinagar       ",Rupandehi,Lumbini,"Shankarnagar-9, Janakinagar  Rupandehi   Lumbini",Ten Plus Two Management,http://edusanjal.com/college/achievers-college,Private,,,,,
Oxford College,HSEB,info@oxfordacademy.edu.np,info@oxfordacademy.edu.np,http://oxfordacademy.edu.np/,"Butwal-10, Sukkhanagar       ",Rupandehi,Lumbini,"Butwal-10, Sukkhanagar  Rupandehi   Lumbini","Ten Plus Two Science,Ten Plus Two Management,Ten Plus Two Humanities",http://edusanjal.com/college/oxford-college,Private,,,,,
Himalaya English Boarding Higher Secondary School Kathmandu,HSEB,,,,Koteshwor       ,Kathmandu,Bagmati,Koteshwor  Kathmandu   Bagmati,"Ten Plus Two Management,Ten Plus Two Humanities",http://edusanjal.com/college/himalaya-english-boarding-higher-secondary-school,Private,,,,,
Annapurna Higher Secondary School Kathmandu,HSEB,,,,Kamalachi       ,Kathmandu,Bagmati,Kamalachi  Kathmandu   Bagmati,"Ten Plus Two Education,Ten Plus Two Management,Ten Plus Two Humanities",http://edusanjal.com/college/annapurna-higher-secondary-school,Private,,,,,
Gyan Kunja Awasiya Higher Secondary School,HSEB,,,,Ravibhawan       ,Kathmandu,Bagmati,Ravibhawan  Kathmandu   Bagmati,"Ten Plus Two Science,Ten Plus Two Management",http://edusanjal.com/college/gyan-kunja-awasiya-higher-secondary-school,Private,,,,,
Kankai Aadarsh Campus,HSEB,"023-540055, 540095",,,"Birtamode-6, Kankai Tole       ",Jhapa,Mechi,"Birtamode-6, Kankai Tole  Jhapa   Mechi","Ten Plus Two Science,Ten Plus Two Management,Ten Plus Two Humanities,Ten Plus Two Education",http://edusanjal.com/college/kankai-aadarsh-campus,Private,,,,,
College for Higher Education,HSEB,"023-542824,690075",cohedbirtamode@yahoo.com,http://www.cohed.edu.np/,"Anarmani 3, Birtamode       ",Jhapa,Mechi,"Anarmani 3, Birtamode  Jhapa   Mechi","Ten Plus Two Humanities,Ten Plus Two Education,Ten Plus Two Management,Ten Plus Two Science",http://edusanjal.com/college/college-higher-education,Private,,,,,
Kamana Boarding Higher Secondary School,HSEB,,,,Gongabu       ,Kathmandu,Bagmati,Gongabu  Kathmandu   Bagmati,Ten Plus Two Management,http://edusanjal.com/college/kamana-boarding-higher-secondary-school,Private,,,,,
Societal Higher Secondary School,HSEB,"01-4498782, 4464524/25",,,New Baneshwor       ,Kathmandu,Bagmati,New Baneshwor  Kathmandu   Bagmati,Ten Plus Two Management,http://edusanjal.com/college/societal-higher-secondary-school,Private,,,,,
Eternal Light Public Higher Secondary School,HSEB,,,,Ka Ma Na Pa 16       ,Kathmandu,Bagmati,Ka Ma Na Pa 16  Kathmandu   Bagmati,Ten Plus Two Management,http://edusanjal.com/college/eternal-light-public-higher-secondary-school,Private,,,,,
Gramsewa Higher Secondary School Kathmandu,HSEB,,,,Dharmasthali       ,Kathmandu,Bagmati,Dharmasthali  Kathmandu   Bagmati,"Ten Plus Two Humanities,Ten Plus Two Education,Ten Plus Two Management",http://edusanjal.com/college/gramsewa-higher-secondary-school,Private,,,,,
Guhyeshwory Higher Secondary School,HSEB,,,,Sinamangal       ,Kathmandu,Bagmati,Sinamangal  Kathmandu   Bagmati,"Ten Plus Two Humanities,Ten Plus Two Education,Ten Plus Two Management",http://edusanjal.com/college/guhyeshwory-higher-secondary-school,Private,,,,,
SANN International Higher Secondary School,HSEB,,,,Gairidhara       ,Kathmandu,Bagmati,Gairidhara  Kathmandu   Bagmati,"Ten Plus Two Management,Ten Plus Two Science",http://edusanjal.com/college/sann-international-higher-secondary-school,Private,,,,,
Kathmandu Bernhardt Higher Secondary School,HSEB,,,,Balkhu       ,Kathmandu,Bagmati,Balkhu  Kathmandu   Bagmati,"Ten Plus Two Science ; 500;,Ten Plus Two Management ; 300;",http://edusanjal.com/college/kathmandu-bernhardt-higher-secondary-school,Private,,,,,
Everest Awasiya Higher Secondary School,HSEB,,,,Galkhopakha       ,Kathmandu,Bagmati,Galkhopakha  Kathmandu   Bagmati,"Ten Plus Two Science,Ten Plus Two Management",http://edusanjal.com/college/everest-awasiya-higher-secondary-school,Private,,,,,
Capitol Hill Academy Higher Secondary School,HSEB,,,,Teku       ,Kathmandu,Bagmati,Teku  Kathmandu   Bagmati,"Ten Plus Two Management,Ten Plus Two Science",http://edusanjal.com/college/capitol-hill-academy-higher-secondary-school,Private,,,,,
Greenwich Academy Higher Secondary School,HSEB,,,,Pepsicola       ,Kathmandu,Bagmati,Pepsicola  Kathmandu   Bagmati,Ten Plus Two Management,http://edusanjal.com/college/greenwich-academy-higher-secondary-school,Private,,,,,
Ashiyaan International Higher Secondary School,HSEB,,,,"Sallaghari, Bansbari       ",Kathmandu,Bagmati,"Sallaghari, Bansbari  Kathmandu   Bagmati","Ten Plus Two Science,Ten Plus Two Management",http://edusanjal.com/college/ashiyaan-international-higher-secondary-school,Private,,,,,
East-Pole Higher Secondary School,HSEB,"977-1-4910990, 4912005",eastpoleschool@gmail.com,http://eastpoleschool.edu.np/,Jorpati       ,Kathmandu,Bagmati,Jorpati  Kathmandu   Bagmati,Ten Plus Two Management,http://edusanjal.com/college/east-pole-higher-secondary-school,Private,,,,,
Bal Uddhar Higher Secondary School,HSEB,,,,Kapan       ,Kathmandu,Bagmati,Kapan  Kathmandu   Bagmati,"Ten Plus Two Humanities,Ten Plus Two Education,Ten Plus Two Management",http://edusanjal.com/college/bal-uddhar-higher-secondary-school,Private,,,,,
Gyan Niketan English Boarding Higher Secondary School,HSEB,,,,Shankhamool       ,Kathmandu,Bagmati,Shankhamool  Kathmandu   Bagmati,"Ten Plus Two Science,Ten Plus Two Management",http://edusanjal.com/college/gyan-niketan-english-boarding-higher-secondary-school,Private,,,,,
Centennial Boarding Higher Secondary School,HSEB,,,,Jorpati-3       ,Kathmandu,Bagmati,Jorpati-3  Kathmandu   Bagmati,"Ten Plus Two Management,Ten Plus Two Humanities",http://edusanjal.com/college/centennial-boarding-higher-secondary-school,Private,,,,,
Kathmandu Unified City Higher Secondary School,HSEB,,,,Chabahil-7       ,Kathmandu,Bagmati,Chabahil-7  Kathmandu   Bagmati,Ten Plus Two Management,http://edusanjal.com/college/kathmandu-unified-city-higher-secondary-school,Private,,,,,
Chahana International Academy Higher Secondary School,HSEB,,,,Kapan 3       ,Kathmandu,Bagmati,Kapan 3  Kathmandu   Bagmati,Ten Plus Two Management,http://edusanjal.com/college/chahana-international-academy-higher-secondary-school,Private,,,,,
Green Kantipur Public Higher Secondary School,HSEB,,,,Swoyambhu Inchangu       ,Kathmandu,Bagmati,Swoyambhu Inchangu  Kathmandu   Bagmati,"Ten Plus Two Science,Ten Plus Two Management",http://edusanjal.com/college/green-kantipur-public-higher-secondary-school,Private,,,,,
Greenland Childerens Academy Boarding Higher Secondary School,HSEB,01-4363874,,,Samakhushi       ,Kathmandu,Bagmati,Samakhushi  Kathmandu   Bagmati,Ten Plus Two Management,http://edusanjal.com/college/greenland-childerens-academy-boarding-higher-secondary-school,Private,,,,,
Carina International Higher Secondary School,HSEB,,,,Dallu       ,Kathmandu,Bagmati,Dallu  Kathmandu   Bagmati,Ten Plus Two Management,http://edusanjal.com/college/carina-international-higher-secondary-school,Private,,,,,
Harikul Namuna Higher Secondary School,HSEB,023-50389,,,"Surunga,         ",Jhapa,Mechi,"Surunga, Jhapa  Jhapa   Mechi","Ten Plus Two Humanities,Ten Plus Two Management",http://edusanjal.com/college/harikul-namuna-higher-secondary-school,Private,,,,,
Himalayan English Academy Higher Secondary School,HSEB,023-561542,,,"Mechinagar-3,Dhulabari       ",Jhapa,Mechi,"Mechinagar-3,Dhulabari  Jhapa   Mechi","Ten Plus Two Humanities,Ten Plus Two Management,Ten Plus Two Education",http://edusanjal.com/college/himalayan-english-academy-higher-secondary-school,Private,,,,,
Gomendra Higher Secondary School,HSEB,023-40109/023-540892,,,"Birtamode,         ",Jhapa,Mechi,"Birtamode, Jhapa  Jhapa   Mechi",Ten Plus Two Management,http://edusanjal.com/college/gomendra-higher-secondary-school,Private,,,,,
Siddhartha Boarding Higher Secondary School Jhapa,HSEB,"023-580142, 581572",,,"Damak-12, Siddhartha Tole       ",Jhapa,Mechi,"Damak-12, Siddhartha Tole  Jhapa   Mechi","Ten Plus Two Management,Ten Plus Two Science",http://edusanjal.com/college/siddhartha-boarding-higher-secondary-school-jhapa,Private,,,,,
Damak Model Higher Secondary School,HSEB,"023-581655, 580655, 581330",,,"Damak-10, Model Chowk       ",Jhapa,Mechi,"Damak-10, Model Chowk  Jhapa   Mechi","Ten Plus Two Science,Ten Plus Two Humanities,Ten Plus Two Management,Ten Plus Two Education",http://edusanjal.com/college/damak-model-higher-secondary-school,Private,,,,,
Manakamana Higher Secondary School Jhapa,HSEB,023-541270,info@manakamanacollege.edu.np,http://manakamanacollege.edu.np/,"Birtamode-1, Yatayat Office Road       ",Jhapa,Mechi,"Birtamode-1, Yatayat Office Road  Jhapa   Mechi","Ten Plus Two Humanities,Ten Plus Two Education,Ten Plus Two Management",http://edusanjal.com/college/manakamana-higher-secondary-school-jhapa,Private,,,,,
Balmiki Providence Higher Secondary School,HSEB,"023-540443, 540195",balmiki.edu@gmail.com,http://www.balmiki.edu.np/,"Birtamode-1, Balmiki Gaun       ",Jhapa,Mechi,"Birtamode-1, Balmiki Gaun  Jhapa   Mechi",Ten Plus Two Management,http://edusanjal.com/college/balmiki-providence-higher-secondary-school,Private,,,,,
Banepa NIST Higher Secondary School,HSEB,011-660792,,,"Banepa-4, Karunamarga       ",Kavrepalanchok,Bagmati,"Banepa-4, Karunamarga  Kavrepalanchok   Bagmati","Ten Plus Two Science,Ten Plus Two Management",http://edusanjal.com/college/banepa-nist-higher-secondary-school,Private,,,,,
Sharada Higher Secondary School Jhapa,HSEB,023-520978,,,Damak       ,Jhapa,Mechi,Damak  Jhapa   Mechi,"Ten Plus Two Humanities,Ten Plus Two Management,Ten Plus Two Education",http://edusanjal.com/college/sharada-higher-secondary-school-jhapa,Private,,,,,
Global Educational Academy Higher Secondary School,HSEB,"023-581281, 585881",globaleducationalacademy@gmail.com,,"Damak-11, Pashupati Marga       ",Jhapa,Mechi,"Damak-11, Pashupati Marga  Jhapa   Mechi","Ten Plus Two Science,Ten Plus Two Humanities,Ten Plus Two Management",http://edusanjal.com/college/global-educational-academy-higher-secondary-school,Private,,,,,
Bibhuti Vidya Mandir English Higher Secondary School,HSEB,,,,Chandragadi-6       ,Jhapa,Mechi,Chandragadi-6  Jhapa   Mechi,"Ten Plus Two Humanities,Ten Plus Two Management",http://edusanjal.com/college/bibhuti-vidya-mandir-english-higher-secondary-school,Private,,,,,
Adarsha Vidya Mandir (AVM) Higher Secondary Boarding School Lalitpur,HSEB,"01-5548014, 5521332, 5524876",,,Manbhawan       ,Lalitpur,Bagmati,Manbhawan  Lalitpur   Bagmati,"Ten Plus Two Management,Ten Plus Two Science",http://edusanjal.com/college/adarsha-vidya-mandir-higher-secondary-boarding-school,Private,,,,,
Kanchanjunga English Higher Secondary School,HSEB,023-542287,kanchanjungaschool@gmail.com,http://www.kanchanjungaschool.edu.np/,"Birtamode-7, Kanchanjunga Tole       ",Jhapa,Mechi,"Birtamode-7, Kanchanjunga Tole  Jhapa   Mechi","Ten Plus Two Science,Ten Plus Two Management",http://edusanjal.com/college/kanchanjunga-english-higher-secondary-school,Private,,,,,
National Multiple Higher Secondary School,HSEB,"01-5544367, 538025",nationalmultiplehss@gmail.com,,Jwalakhel       ,Lalitpur,Bagmati,Jwalakhel  Lalitpur   Bagmati,"Ten Plus Two Science,Ten Plus Two Humanities",http://edusanjal.com/college/national-multiple-higher-secondary-school,Private,,,,,
North Point English Boarding Higher Secondary School,HSEB,023-562200,,,"Mechinagar-10, Kakarvitta       ",Jhapa,Mechi,"Mechinagar-10, Kakarvitta  Jhapa   Mechi",Ten Plus Two Management,http://edusanjal.com/college/north-point-english-boarding-higher-secondary-school,Private,,,,,
Himalaya Higher Secondary School Jhapa,HSEB,580286,,,Damak       ,Jhapa,Mechi,Damak  Jhapa   Mechi,"Ten Plus Two Humanities,Ten Plus Two Management,Ten Plus Two Education",http://edusanjal.com/college/himalaya-higher-secondary-school-jhapa,Private,,,,,
Newton's Education Academy Higher Secondary School,HSEB,023-540196,newtons@yahoo.com,http://www.newtonschool.edu.np/,"Anarmani-3, Birtamod       ",Jhapa,Mechi,"Anarmani-3, Birtamod  Jhapa   Mechi","Ten Plus Two Science,Ten Plus Two Management",http://edusanjal.com/college/newtons-education-academy-higher-secondary-school,Private,,,,,
Tri-Padma Vidyashram Higher Secondary School,HSEB,01-521457,,,Pulchowk       ,Lalitpur,Bagmati,Pulchowk  Lalitpur   Bagmati,"Ten Plus Two Management,Ten Plus Two Education",http://edusanjal.com/college/tri-padma-vidyashram-higher-secondary-school,Private,,,,,
Opal International Higher Secondary School,HSEB,"4471354, 4478482",opalhsscollege@gmail.com,http://opal.edu.np/,"Kutubahal, Sifal, Chabhil       ",Kathmandu,Bagmati,"Kutubahal, Sifal, Chabhil  Kathmandu   Bagmati",Ten Plus Two Management,http://edusanjal.com/college/opal-international-higher-secondary-school,Private,,,,,
Little Angels Higher Secondary School,HSEB,"977-1-5250123, 5250111",,http://lac.edu.np/,Hattiban       ,Lalitpur,Bagmati,Hattiban  Lalitpur   Bagmati,"Ten Plus Two Management ; 280;,Ten Plus Two Science ; 320;",http://edusanjal.com/college/little-angels-higher-secondary-school,Private,,,,,
HRIT Academy,HSEB,01-4390111,info@hritacademy.edu.np,,"Machhapokhari, Balaju       ",Kathmandu,Bagmati,"Machhapokhari, Balaju  Kathmandu   Bagmati","Ten Plus Two Management,Ten Plus Two Humanities",http://edusanjal.com/college/hrit-academy,Private,,,,,
Nepal Kasthamandap College,HSEB,"01-4288965, 4289257",kasthamandapcollege@gmail.com,http://www.kasthamandapcollege.edu.np/,"Kalanki, (Near Makalu Petrol Pump)       ",Kathmandu,Bagmati,"Kalanki, (Near Makalu Petrol Pump)  Kathmandu   Bagmati","Ten Plus Two Management,Ten Plus Two Science,Ten Plus Two Humanities",http://edusanjal.com/college/nepal-kasthamandap-college,Private,,,,,
Lincoln college,HSEB,"977-1-4382774, 4363024, 4363025",info@lincolncollege.edu.np,http://www.lincolncollege.edu.np/,"Town Planning, Gongabu       ",Kathmandu,Bagmati,"Town Planning, Gongabu  Kathmandu   Bagmati","Ten Plus Two Humanities,Ten Plus Two Management,Ten Plus Two Education,Ten Plus Two Science",http://edusanjal.com/college/lincoln-college,Private,,,,,
New Summit Higher Secondary School,HSEB,,,,Maitidevi       ,Kathmandu,Bagmati,Maitidevi  Kathmandu   Bagmati,"Ten Plus Two Management,Ten Plus Two Science",http://edusanjal.com/college/new-summit-higher-secondary-school,Private,,,,,
Vidhya Sanskar School,HSEB,01-4472902,mail@chelseainternational.com.np,http://chelseainternational.com.np/,"Lakhechaur Marg, New Baneshwor       ",Kathmandu,Bagmati,"Lakhechaur Marg, New Baneshwor  Kathmandu   Bagmati","Ten Plus Two Science,Ten Plus Two Management",http://edusanjal.com/college/vidhya-sanskar-school,Private,,,,,
Loyola Higher Secondary School,HSEB,"01-4473286, 4471116, 2100329",info@loyolahsschool.edu.np,http://www.loyolahsschool.edu.np/,Purano Baneshwor       ,Kathmandu,Bagmati,"Loyola Higher Secondary SchoolG.P.O. Box : 21123, Purano Baneshwor, Kathmandu, NepalTel : 01-4473286, 4471116, 2100329","Ten Plus Two Management,Ten Plus Two Science,Ten Plus Two Humanities",http://edusanjal.com/college/loyola-higher-secondary-school,Private,,,,,
Riviera International Academy,HSEB,"977-1-4462223, 4485087",info@riviera.edu.np,http://riviera.edu.np/,"Maijubahal, Chabahil       ",Kathmandu,Bagmati,"Maijubahal, Chabahil  Kathmandu   Bagmati",Ten Plus Two Management,http://edusanjal.com/college/riviera-international-academy,Private,,,,,
GEMS Institute of Higher Education-GIHE,HSEB,01- 5003060,info@gihe.edu.np,http://www.gihe.edu.np/,Dhapakhel       ,Lalitpur,Bagmati,Dhapakhel  Lalitpur   Bagmati,Ten Plus Two Science,http://edusanjal.com/college/gems-institute-higher-education-gihe,Private,,,,,
Kumari Academy (KEBS),HSEB,"977-1-4466821, 4480419",,,"Boudha, Tusal       ",Kathmandu,Bagmati,"Boudha, Tusal  Kathmandu   Bagmati","Ten Plus Two Education,Ten Plus Two Science,Ten Plus Two Management,Ten Plus Two Humanities",http://edusanjal.com/college/kumari-academy-kebs,Private,,,,,
Mega Higher Secondary School,HSEB,"977-1-5538621, 5538328",megaeducation20@gmail.com,,Kumaripati       ,Lalitpur,Bagmati,Kumaripati  Lalitpur   Bagmati,"Ten Plus Two Management,Ten Plus Two Science",http://edusanjal.com/college/mega-higher-secondary-school,Private,,,,,
Heartland Academy Higher Secondary School,HSEB,977-1-4278135,principal@heartlandnepal.com,http://www.heartlandnepal.com/,Bafal-13       ,Kathmandu,Bagmati,Bafal-13  Kathmandu   Bagmati,"Ten Plus Two Science,Ten Plus Two Management",http://edusanjal.com/college/heartland-academy-higher-secondary-school,Private,,,,,
NAAST Higher Secondary School,HSEB,025-525651,,,Dharan-16       ,Sunsari,Koshi,Dharan-16  Sunsari   Koshi,"Ten Plus Two Science,Ten Plus Two Management",http://edusanjal.com/college/naast-higher-secondary-school,Private,,,,,
